NORAD_CAT_ID,OBJECT_NAME,OBJECT_TYPE,EPOCH,MEAN_MOTION,ECCENTRICITY,INCLINATION,RA_OF_ASC_NODE,ARG_OF_PERICENTER,MEAN_ANOMALY,BSTAR,MEAN_MOTION_DOT,MEAN_MOTION_DDOT,TLE_LINE0,TLE_LINE1,TLE_LINE2,SEMIMAJOR_AXIS,PERIOD,APOGEE,PERIGEE,DECAYED
51975.0,STARLINK-3674,PAYLOAD,2022-12-16 05:11:36,15.08847854,0.0002883,53.2151,283.9954,28.2268,331.8880000000001,0.00024008,3.535e-05,0.0,0 STARLINK-3674,1 51975U 22025V   22350.21639495  .00003535  00000-0  24008-3 0  9992,2 51975  53.2151 283.9954 0002883  28.2268 331.8880 15.08847854 44251,6917.856,95.437,541.716,537.727,0.0
51975.0,STARLINK-3674,PAYLOAD,2022-12-16 13:08:32,15.08838922,0.0002929,53.2151,282.5085,28.5895,331.5257,0.00016027,2.263e-05,0.0,0 STARLINK-3674,1 51975U 22025V   22350.54760038  .00002263  00000-0  16027-3 0  9995,2 51975  53.2151 282.5085 0002929  28.5895 331.5257 15.08838922 44308,6917.884,95.438,541.775,537.722,0.0
51975.0,STARLINK-3674,PAYLOAD,2022-12-16 19:30:05,15.08835568,0.0002719,53.2154,281.3193,28.7013,331.4128,9.0922e-05,1.159e-05,0.0,0 STARLINK-3674,1 51975U 22025V   22350.81256240  .00001159  00000-0  90922-4 0  9990,2 51975  53.2154 281.3193 0002719  28.7013 331.4128 15.08835568 43239,6917.894,95.438,541.64,537.878,0.0
51975.0,STARLINK-3674,PAYLOAD,2022-12-17 03:27:02,15.08821343,0.0002827,53.2167,279.8317,27.7729,332.3414,-0.00011311,-2.087e-05,0.0,0 STARLINK-3674,1 51975U 22025V   22351.14377888 -.00002087  00000-0 -11311-3 0  9996,2 51975  53.2167 279.8317 0002827  27.7729 332.3414 15.08821343 44398,6917.937,95.439,541.758,537.847,0.0
51975.0,STARLINK-3674,PAYLOAD,2022-12-17 12:59:20,15.08832263,0.000292,53.2169,278.0479,28.0034,332.1115,-3.9225e-05,-9.13e-06,0.0,0 STARLINK-3674,1 51975U 22025V   22351.54121284 -.00000913  00000-0 -39225-4 0  9998,2 51975  53.2169 278.0479 0002920  28.0034 332.1115 15.08832263 43340,6917.904,95.438,541.789,537.749,0.0
51975.0,STARLINK-3674,PAYLOAD,2022-12-18 04:53:11,15.08849174,0.0002826,53.2164,275.0737,26.9762,333.1377,8.775100000000001e-05,1.109e-05,0.0,0 STARLINK-3674,1 51975U 22025V   22352.20359962  .00001109  00000-0  87751-4 0  9991,2 51975  53.2164 275.0737 0002826  26.9762 333.1377 15.08849174 44553,6917.852,95.437,541.672,537.762,0.0
51975.0,STARLINK-3674,PAYLOAD,2022-12-18 23:57:49,15.08849491,0.000302,53.2163,271.5054,25.82,334.2943,-0.00017608,-3.091e-05,0.0,0 STARLINK-3674,1 51975U 22025V   22352.99848714 -.00003091  00000-0 -17608-3 0  9992,2 51975  53.2163 271.5054 0003020  25.8200 334.2943 15.08849491 44673,6917.851,95.437,541.806,537.627,0.0
51975.0,STARLINK-3674,PAYLOAD,2022-12-20 01:23:58,15.08849904,0.0002966,53.2158,266.7489,21.7421,338.3697,0.00010693,1.414e-05,0.0,0 STARLINK-3674,1 51975U 22025V   22354.05832159  .00001414  00000-0  10693-3 0  9999,2 51975  53.2158 266.7489 0002966  21.7421 338.3697 15.08849904 44831,6917.85,95.437,541.7669999999998,537.663,0.0
51975.0,STARLINK-3674,PAYLOAD,2022-12-20 10:56:16,15.08866646,0.0002976,53.2159,264.9631,23.3223,336.7904,0.00015809,2.23e-05,0.0,0 STARLINK-3674,1 51975U 22025V   22354.45574584  .00002230  00000-0  15809-3 0  9999,2 51975  53.2159 264.9631 0002976  23.3223 336.7904 15.08866646 44891,6917.799,95.436,541.7230000000002,537.605,0.0
51975.0,STARLINK-3674,PAYLOAD,2022-12-20 20:28:38,15.08819857,0.0002898999999999,53.2164,263.1794,16.9281,343.1807,-0.00012998,-2.356e-05,0.0,0 STARLINK-3674,1 51975U 22025V   22354.85322046 -.00002356  00000-0 -12998-3 0  9994,2 51975  53.2164 263.1794 0002899  16.9281 343.1807 15.08819857 44957,6917.941999999999,95.439,541.812,537.8009999999998,0.0
51975.0,STARLINK-3674,PAYLOAD,2022-12-20 23:39:25,15.08811878,0.0002877,53.2159,262.5852,19.7175,340.3927,-0.00021138,-3.649e-05,0.0,0 STARLINK-3674,1 51975U 22025V   22354.98570966 -.00003649  00000-0 -21138-3 0  9996,2 51975  53.2159 262.5852 0002877  19.7175 340.3927 15.08811878 44977,6917.965999999999,95.439,541.822,537.841,0.0
51975.0,STARLINK-3674,PAYLOAD,2022-12-22 04:16:19,15.08851874,0.0003006,53.2161,257.2303,19.9533,340.1577,-2.2831e-05,-6.52e-06,0.0,0 STARLINK-3674,1 51975U 22025V   22356.17800893 -.00000652  00000-0 -22831-4 0  9997,2 51975  53.2161 257.2303 0003006  19.9533 340.1577 15.08851874 45157,6917.844,95.437,541.789,537.63,0.0
51975.0,STARLINK-3674,PAYLOAD,2022-12-22 10:37:51,15.08858574,0.0003088,53.2161,256.0424,21.8183,338.2940000000001,4.7771e-05,4.72e-06,0.0,0 STARLINK-3674,1 51975U 22025V   22356.44296017  .00000472  00000-0  47771-4 0  9992,2 51975  53.2161 256.0424 0003088  21.8183 338.2940 15.08858574 45191,6917.824000000001,95.436,541.825,537.552,0.0
51975.0,STARLINK-3674,PAYLOAD,2022-12-22 16:59:24,15.08847326,0.0003437,53.2162,254.8509,30.055,330.0639,0.00020778,3.021e-05,0.0,0 STARLINK-3674,1 51975U 22025V   22356.70792308  .00003021  00000-0  20778-3 0  9995,2 51975  53.2162 254.8509 0003437  30.0550 330.0639 15.08847326 44120,6917.858,95.437,542.101,537.345,0.0
51975.0,STARLINK-3674,PAYLOAD,2022-12-22 21:45:34,15.08846398,0.0003259,53.2167,253.9611,30.4554,329.6627,5.3649e-05,5.65e-06,0.0,0 STARLINK-3674,1 51975U 22025V   22356.90664740  .00000565  00000-0  53649-4 0  9999,2 51975  53.2167 253.9611 0003259  30.4554 329.6627 15.08846398 45264,6917.861,95.437,541.98,537.471,0.0
51975.0,STARLINK-3674,PAYLOAD,2022-12-23 02:31:44,15.08828998,0.0003116,53.2156,253.0696,22.5615,337.5513,0.00033039,4.972e-05,0.0,0 STARLINK-3674,1 51975U 22025V   22357.10537272  .00004972  00000-0  33039-3 0  9997,2 51975  53.2156 253.0696 0003116  22.5615 337.5513 15.08828998 45299,6917.9140000000025,95.438,541.935,537.623,0.0
51975.0,STARLINK-3674,PAYLOAD,2022-12-23 12:04:03,15.08844508,0.0002893,53.2152,251.2843,21.1823,338.9288,3.2499e-06,-2.37e-06,0.0,0 STARLINK-3674,1 51975U 22025V   22357.50281604 -.00000237  00000-0  32499-5 0  9998,2 51975  53.2152 251.2843 0002893  21.1823 338.9288 15.08844508 44249,6917.8669999999975,95.437,541.7330000000002,537.73,0.0
51975.0,STARLINK-3674,PAYLOAD,2022-12-23 20:00:59,15.08839403,0.0002898,53.2152,249.797,21.8775,338.2341,-4.2123e-05,-9.59e-06,0.0,0 STARLINK-3674,1 51975U 22025V   22357.83402020 -.00000959  00000-0 -42123-4 0  9997,2 51975  53.2152 249.7970 0002898  21.8775 338.2341 15.08839403 44296,6917.882,95.438,541.752,537.742,0.0
51975.0,STARLINK-3674,PAYLOAD,2022-12-24 10:19:26,15.08846808,0.0002916,53.2164,247.1203,23.0365,337.0757,5.7955e-05,6.34e-06,0.0,0 STARLINK-3674,1 51975U 22025V   22358.43017036  .00000634  00000-0  57955-4 0  9990,2 51975  53.2164 247.1203 0002916  23.0365 337.0757 15.08846808 45498,6917.86,95.437,541.742,537.707,0.0
51975.0,STARLINK-3674,PAYLOAD,2022-12-24 21:27:08,15.08840204,0.0002926,53.2155,245.0381,24.9728,335.1405,7.7453e-05,9.44e-06,0.0,0 STARLINK-3674,1 51975U 22025V   22358.89385220  .00000944  00000-0  77453-4 0  9992,2 51975  53.2155 245.0381 0002926  24.9728 335.1405 15.08840204 44454,6917.88,95.438,541.769,537.721,0.0
51975.0,STARLINK-3674,PAYLOAD,2022-12-25 10:10:13,15.08845526,0.0002992,53.2154,242.6593,25.9959,334.1183,-1.0438e-05,-4.55e-06,0.0,0 STARLINK-3674,1 51975U 22025V   22359.42376975 -.00000455  00000-0 -10438-4 0  9998,2 51975  53.2154 242.6593 0002992  25.9959 334.1183 15.08845526 44534,6917.863,95.437,541.798,537.659,0.0
51975.0,STARLINK-3674,PAYLOAD,2022-12-25 16:31:46,15.0883659,0.0003067,53.2152,241.4704,27.1464,332.9688,7.099600000000001e-05,8.41e-06,0.0,0 STARLINK-3674,1 51975U 22025V   22359.68873344  .00000841  00000-0  70996-4 0  9990,2 51975  53.2152 241.4704 0003067  27.1464 332.9688 15.08836590 45686,6917.891,95.438,541.878,537.634,0.0
51975.0,STARLINK-3674,PAYLOAD,2022-12-26 02:04:05,15.08842472,0.000319,53.2152,239.6865,26.7448,333.3708,-1.5648e-05,-5.38e-06,0.0,0 STARLINK-3674,1 51975U 22025V   22360.08617260 -.00000538  00000-0 -15648-4 0  9997,2 51975  53.2152 239.6865 0003190  26.7448 333.3708 15.08842472 44635,6917.873000000001,95.437,541.945,537.531,0.0
51975.0,STARLINK-3674,PAYLOAD,2022-12-26 16:22:33,15.08837358,0.0003096,53.2152,237.01,27.3751,332.7404,8.8439e-05,1.119e-05,0.0,0 STARLINK-3674,1 51975U 22025V   22360.68233228  .00001119  00000-0  88439-4 0  9993,2 51975  53.2152 237.0100 0003096  27.3751 332.7404 15.08837358 44721,6917.888000000001,95.438,541.895,537.612,0.0
51975.0,STARLINK-3674,PAYLOAD,2022-12-27 00:19:29,15.08842405,0.0003215,53.2149,235.5234,25.29300000000001,334.8219,4.673e-05,4.55e-06,0.0,0 STARLINK-3674,1 51975U 22025V   22361.01353028  .00000455  00000-0  46730-4 0  9992,2 51975  53.2149 235.5234 0003215  25.2930 334.8219 15.08842405 45881,6917.873000000001,95.437,541.962,537.514,0.0
51975.0,STARLINK-3674,PAYLOAD,2022-12-27 08:16:24,15.08850054,0.000324,53.2147,234.0363,23.2995,336.8143,7.7689e-05,9.48e-06,0.0,0 STARLINK-3674,1 51975U 22025V   22361.34472291  .00000948  00000-0  77689-4 0  9996,2 51975  53.2147 234.0363 0003240  23.2995 336.8143 15.08850054 45936,6917.85,95.437,541.956,537.4730000000002,0.0
51975.0,STARLINK-3674,PAYLOAD,2022-12-27 14:37:56,15.08853077,0.0003155,53.2153,232.8471,25.7261,334.3888,0.0001361,1.879e-05,0.0,0 STARLINK-3674,1 51975U 22025V   22361.60967813  .00001879  00000-0  13610-3 0  9991,2 51975  53.2153 232.8471 0003155  25.7261 334.3888 15.08853077 44865,6917.84,95.437,541.888,537.523,0.0
51975.0,STARLINK-3674,PAYLOAD,2022-12-27 19:24:03,15.0893539,0.0003736,53.2149,231.954,26.4795,333.6388,-0.0011685,-0.00018889,0.0,0 STARLINK-3674,1 51975U 22025V   22361.80837478 -.00018889  00000-0 -11685-2 0  9996,2 51975  53.2149 231.9540 0003736  26.4795 333.6388 15.08935390 44891,6917.589,95.432,542.038,536.869,0.0
51975.0,STARLINK-3674,PAYLOAD,2022-12-27 20:59:29,15.08843744,0.0003185,53.2152,231.657,24.4917,335.6225,0.00013136,1.803e-05,0.0,0 STARLINK-3674,1 51975U 22025V   22361.87464377  .00001803  00000-0  13136-3 0  9997,2 51975  53.2152 231.6570 0003185  24.4917 335.6225 15.08843744 46016,6917.869000000002,95.437,541.937,537.531,0.0
